[{"OBJECT_NAME":"METOP-C","OBJECT_ID":"2018-087A","EPOCH":"2026-04-27T04:15:55.224000","MEAN_MOTION":14.21512023,"ECCENTRICITY":7.91e-5,"INCLINATION":98.6678,"RA_OF_ASC_NODE":177.7049,"ARG_OF_PERICENTER":39.8315,"MEAN_ANOMALY":320.2921,"EPHEMERIS_TYPE":0,"CLASSIFICATION_TYPE":"U","NORAD_CAT_ID":43689,"ELEMENT_SET_NO":999,"REV_AT_EPOCH":38758,"BSTAR":7.1076e-5,"MEAN_MOTION_DOT":1.12e-6,"MEAN_MOTION_DDOT":0},{"OBJECT_NAME":"GEO-KOMPSAT-2A","OBJECT_ID":"2018-100A","EPOCH":"2026-04-26T22:43:57.013824","MEAN_MOTION":1.00270973,"ECCENTRICITY":0.0002006,"INCLINATION":0.0568,"RA_OF_ASC_NODE":67.9377,"ARG_OF_PERICENTER":358.3688,"MEAN_ANOMALY":257.888,"EPHEMERIS_TYPE":0,"CLASSIFICATION_TYPE":"U","NORAD_CAT_ID":43823,"ELEMENT_SET_NO":999,"REV_AT_EPOCH":2711,"BSTAR":0,"MEAN_MOTION_DOT":-3.55e-6,"MEAN_MOTION_DDOT":0},{"OBJECT_NAME":"METEOR-M2 2","OBJECT_ID":"2019-038A","EPOCH":"2026-04-27T05:53:47.927040","MEAN_MOTION":14.24351246,"ECCENTRICITY":0.0001773,"INCLINATION":98.9132,"RA_OF_ASC_NODE":103.7859,"ARG_OF_PERICENTER":126.2388,"MEAN_ANOMALY":233.8954,"EPHEMERIS_TYPE":0,"CLASSIFICATION_TYPE":"U","NORAD_CAT_ID":44387,"ELEMENT_SET_NO":999,"REV_AT_EPOCH":35404,"BSTAR":9.2946e-5,"MEAN_MOTION_DOT":1.69e-6,"MEAN_MOTION_DDOT":0},{"OBJECT_NAME":"ARKTIKA-M 1","OBJECT_ID":"2021-016A","EPOCH":"2026-04-23T03:56:17.933280","MEAN_MOTION":2.00609676,"ECCENTRICITY":0.72664948,"INCLINATION":63.2246,"RA_OF_ASC_NODE":65.5569,"ARG_OF_PERICENTER":269.6808,"MEAN_ANOMALY":14.9538,"EPHEMERIS_TYPE":0,"CLASSIFICATION_TYPE":"U","NORAD_CAT_ID":47719,"ELEMENT_SET_NO":999,"REV_AT_EPOCH":3768,"BSTAR":0,"MEAN_MOTION_DOT":-1.01e-6,"MEAN_MOTION_DDOT":0},{"OBJECT_NAME":"FENGYUN 3E","OBJECT_ID":"2021-062A","EPOCH":"2026-04-27T04:24:18.389952","MEAN_MOTION":14.1990019,"ECCENTRICITY":8.37e-5,"INCLINATION":98.7511,"RA_OF_ASC_NODE":121.1597,"ARG_OF_PERICENTER":190.8647,"MEAN_ANOMALY":169.2512,"EPHEMERIS_TYPE":0,"CLASSIFICATION_TYPE":"U","NORAD_CAT_ID":49008,"ELEMENT_SET_NO":999,"REV_AT_EPOCH":24934,"BSTAR":8.6663e-5,"MEAN_MOTION_DOT":1.4e-6,"MEAN_MOTION_DDOT":0},{"OBJECT_NAME":"GOES 18","OBJECT_ID":"2022-021A","EPOCH":"2026-04-26T23:11:01.917024","MEAN_MOTION":1.00271663,"ECCENTRICITY":6.69e-5,"INCLINATION":0.0104,"RA_OF_ASC_NODE":83.6605,"ARG_OF_PERICENTER":3.3583,"MEAN_ANOMALY":338.7,"EPHEMERIS_TYPE":0,"CLASSIFICATION_TYPE":"U","NORAD_CAT_ID":51850,"ELEMENT_SET_NO":999,"REV_AT_EPOCH":607,"BSTAR":0,"MEAN_MOTION_DOT":0,"MEAN_MOTION_DDOT":0},{"OBJECT_NAME":"NOAA 21 (JPSS-2)","OBJECT_ID":"2022-150A","EPOCH":"2026-04-27T03:28:27.873120","MEAN_MOTION":14.19555901,"ECCENTRICITY":0.0001788,"INCLINATION":98.7035,"RA_OF_ASC_NODE":56.7984,"ARG_OF_PERICENTER":20.8902,"MEAN_ANOMALY":339.2347,"EPHEMERIS_TYPE":0,"CLASSIFICATION_TYPE":"U","NORAD_CAT_ID":54234,"ELEMENT_SET_NO":999,"REV_AT_EPOCH":17930,"BSTAR":6.0349e-5,"MEAN_MOTION_DOT":8.4e-7,"MEAN_MOTION_DDOT":0},{"OBJECT_NAME":"METEOSAT-12 (MTG-I1)","OBJECT_ID":"2022-170C","EPOCH":"2026-04-27T05:20:38.796000","MEAN_MOTION":1.00269708,"ECCENTRICITY":0.0001108,"INCLINATION":0.7245,"RA_OF_ASC_NODE":22.4777,"ARG_OF_PERICENTER":335.3296,"MEAN_ANOMALY":297.2322,"EPHEMERIS_TYPE":0,"CLASSIFICATION_TYPE":"U","NORAD_CAT_ID":54743,"ELEMENT_SET_NO":999,"REV_AT_EPOCH":1246,"BSTAR":0,"MEAN_MOTION_DOT":-1.8e-7,"MEAN_MOTION_DDOT":0},{"OBJECT_NAME":"TIANMU-1 03","OBJECT_ID":"2023-039A","EPOCH":"2026-04-27T04:38:47.770944","MEAN_MOTION":15.45811124,"ECCENTRICITY":0.0001653,"INCLINATION":97.5217,"RA_OF_ASC_NODE":289.2301,"ARG_OF_PERICENTER":277.8236,"MEAN_ANOMALY":82.2825,"EPHEMERIS_TYPE":0,"CLASSIFICATION_TYPE":"U","NORAD_CAT_ID":55973,"ELEMENT_SET_NO":999,"REV_AT_EPOCH":17295,"BSTAR":0.00036572,"MEAN_MOTION_DOT":0.00017649,"MEAN_MOTION_DDOT":0},{"OBJECT_NAME":"TIANMU-1 04","OBJECT_ID":"2023-039B","EPOCH":"2026-04-27T04:50:44.014848","MEAN_MOTION":15.46356926,"ECCENTRICITY":0.0002341,"INCLINATION":97.5152,"RA_OF_ASC_NODE":288.3915,"ARG_OF_PERICENTER":272.0585,"MEAN_ANOMALY":88.0395,"EPHEMERIS_TYPE":0,"CLASSIFICATION_TYPE":"U","NORAD_CAT_ID":55974,"ELEMENT_SET_NO":999,"REV_AT_EPOCH":17296,"BSTAR":0.00037607,"MEAN_MOTION_DOT":0.00018497,"MEAN_MOTION_DDOT":0},{"OBJECT_NAME":"TIANMU-1 05","OBJECT_ID":"2023-039C","EPOCH":"2026-04-27T04:07:49.912608","MEAN_MOTION":15.4574825,"ECCENTRICITY":0.0001605,"INCLINATION":97.5198,"RA_OF_ASC_NODE":288.8413,"ARG_OF_PERICENTER":321.4457,"MEAN_ANOMALY":38.6677,"EPHEMERIS_TYPE":0,"CLASSIFICATION_TYPE":"U","NORAD_CAT_ID":55975,"ELEMENT_SET_NO":999,"REV_AT_EPOCH":17293,"BSTAR":0.00037398,"MEAN_MOTION_DOT":0.00018012,"MEAN_MOTION_DDOT":0},{"OBJECT_NAME":"TIANMU-1 06","OBJECT_ID":"2023-039D","EPOCH":"2026-04-27T04:51:35.176608","MEAN_MOTION":15.46284263,"ECCENTRICITY":0.0001807,"INCLINATION":97.5206,"RA_OF_ASC_NODE":289.4586,"ARG_OF_PERICENTER":307.6895,"MEAN_ANOMALY":52.419,"EPHEMERIS_TYPE":0,"CLASSIFICATION_TYPE":"U","NORAD_CAT_ID":55976,"ELEMENT_SET_NO":999,"REV_AT_EPOCH":17296,"BSTAR":0.00038149,"MEAN_MOTION_DOT":0.00018718,"MEAN_MOTION_DDOT":0},{"OBJECT_NAME":"FENGYUN 3G","OBJECT_ID":"2023-055A","EPOCH":"2026-04-27T02:10:53.964768","MEAN_MOTION":15.52415306,"ECCENTRICITY":0.0005996,"INCLINATION":49.9927,"RA_OF_ASC_NODE":249.5433,"ARG_OF_PERICENTER":325.1636,"MEAN_ANOMALY":34.8938,"EPHEMERIS_TYPE":0,"CLASSIFICATION_TYPE":"U","NORAD_CAT_ID":56232,"ELEMENT_SET_NO":999,"REV_AT_EPOCH":17206,"BSTAR":0.00045318,"MEAN_MOTION_DOT":0.00027883,"MEAN_MOTION_DDOT":0},{"OBJECT_NAME":"METEOR-M2 3","OBJECT_ID":"2023-091A","EPOCH":"2026-04-27T03:47:51.787392","MEAN_MOTION":14.24042314,"ECCENTRICITY":0.0003228,"INCLINATION":98.6122,"RA_OF_ASC_NODE":173.1701,"ARG_OF_PERICENTER":334.6522,"MEAN_ANOMALY":25.4498,"EPHEMERIS_TYPE":0,"CLASSIFICATION_TYPE":"U","NORAD_CAT_ID":57166,"ELEMENT_SET_NO":999,"REV_AT_EPOCH":14725,"BSTAR":2.3307e-5,"MEAN_MOTION_DOT":1.0e-7,"MEAN_MOTION_DDOT":0},{"OBJECT_NAME":"TIANMU-1 07","OBJECT_ID":"2023-101A","EPOCH":"2026-04-27T01:41:45.604608","MEAN_MOTION":15.29262586,"ECCENTRICITY":0.0001367,"INCLINATION":97.264,"RA_OF_ASC_NODE":168.9231,"ARG_OF_PERICENTER":10.9935,"MEAN_ANOMALY":349.1335,"EPHEMERIS_TYPE":0,"CLASSIFICATION_TYPE":"U","NORAD_CAT_ID":57399,"ELEMENT_SET_NO":999,"REV_AT_EPOCH":15383,"BSTAR":0.00024613,"MEAN_MOTION_DOT":6.914e-5,"MEAN_MOTION_DDOT":0},{"OBJECT_NAME":"TIANMU-1 08","OBJECT_ID":"2023-101B","EPOCH":"2026-04-27T04:03:23.380704","MEAN_MOTION":15.29295784,"ECCENTRICITY":0.0002213,"INCLINATION":97.2629,"RA_OF_ASC_NODE":168.7954,"ARG_OF_PERICENTER":314.7422,"MEAN_ANOMALY":45.3638,"EPHEMERIS_TYPE":0,"CLASSIFICATION_TYPE":"U","NORAD_CAT_ID":57400,"ELEMENT_SET_NO":999,"REV_AT_EPOCH":15384,"BSTAR":0.0003201,"MEAN_MOTION_DOT":9.026e-5,"MEAN_MOTION_DDOT":0},{"OBJECT_NAME":"TIANMU-1 09","OBJECT_ID":"2023-101C","EPOCH":"2026-04-27T03:39:56.164032","MEAN_MOTION":15.29301192,"ECCENTRICITY":0.000186,"INCLINATION":97.2587,"RA_OF_ASC_NODE":168.2232,"ARG_OF_PERICENTER":2.472,"MEAN_ANOMALY":357.6529,"EPHEMERIS_TYPE":0,"CLASSIFICATION_TYPE":"U","NORAD_CAT_ID":57401,"ELEMENT_SET_NO":999,"REV_AT_EPOCH":15384,"BSTAR":0.0002624,"MEAN_MOTION_DOT":7.385e-5,"MEAN_MOTION_DDOT":0}]
