METOP-C                 
1 43689U 18087A   26117.17772250  .00000112  00000+0  71076-4 0  9990
2 43689  98.6678 177.7049 0000791  39.8315 320.2921 14.21512023387588
GEO-KOMPSAT-2A          
1 43823U 18100A   26116.94718766 -.00000355  00000+0  00000+0 0  9996
2 43823   0.0568  67.9377 0002006 358.3688 257.8880  1.00270973 27117
METEOR-M2 2             
1 44387U 19038A   26117.24569360  .00000169  00000+0  92946-4 0  9998
2 44387  98.9132 103.7859 0001773 126.2388 233.8954 14.24351246354043
ARKTIKA-M 1             
1 47719U 21016A   26113.16409645 -.00000101  00000+0  00000+0 0  9997
2 47719  63.2246  65.5569 7266494 269.6808  14.9538  2.00609676 37686
FENGYUN 3E              
1 49008U 21062A   26117.18354618  .00000140  00000+0  86663-4 0  9992
2 49008  98.7511 121.1597 0000837 190.8647 169.2512 14.19900190249345
GOES 18                 
1 51850U 22021A   26116.96599441  .00000000  00000+0  00000+0 0  9997
2 51850   0.0104  83.6605 0000669   3.3583 338.7000  1.00271663  6077
NOAA 21 (JPSS-2)        
1 54234U 22150A   26117.14476705  .00000084  00000+0  60349-4 0  9996
2 54234  98.7035  56.7984 0001788  20.8902 339.2347 14.19555901179307
METEOSAT-12 (MTG-I1)    
1 54743U 22170C   26117.22267125 -.00000018  00000+0  00000+0 0  9997
2 54743   0.7245  22.4777 0001108 335.3296 297.2322  1.00269708 12466
TIANMU-1 03             
1 55973U 23039A   26117.19360846  .00017649  00000+0  36572-3 0  9992
2 55973  97.5217 289.2301 0001653 277.8236  82.2825 15.45811124172950
TIANMU-1 04             
1 55974U 23039B   26117.20189832  .00018497  00000+0  37607-3 0  9991
2 55974  97.5152 288.3915 0002341 272.0585  88.0395 15.46356926172961
TIANMU-1 05             
1 55975U 23039C   26117.17210547  .00018012  00000+0  37398-3 0  9996
2 55975  97.5198 288.8413 0001605 321.4457  38.6677 15.45748250172934
TIANMU-1 06             
1 55976U 23039D   26117.20249047  .00018718  00000+0  38149-3 0  9996
2 55976  97.5206 289.4586 0001807 307.6895  52.4190 15.46284263172966
FENGYUN 3G              
1 56232U 23055A   26117.09090237  .00027883  00000+0  45318-3 0  9991
2 56232  49.9927 249.5433 0005996 325.1636  34.8938 15.52415306172068
METEOR-M2 3             
1 57166U 23091A   26117.15823828  .00000010  00000+0  23307-4 0  9993
2 57166  98.6122 173.1701 0003228 334.6522  25.4498 14.24042314147251
TIANMU-1 07             
1 57399U 23101A   26117.07066672  .00006914  00000+0  24613-3 0  9999
2 57399  97.2640 168.9231 0001367  10.9935 349.1335 15.29262586153831
TIANMU-1 08             
1 57400U 23101B   26117.16902061  .00009026  00000+0  32010-3 0  9990
2 57400  97.2629 168.7954 0002213 314.7422  45.3638 15.29295784153846
TIANMU-1 09             
1 57401U 23101C   26117.15273338  .00007385  00000+0  26240-3 0  9992
2 57401  97.2587 168.2232 0001860   2.4720 357.6529 15.29301192153842
